ONEWEB-0620             
1 55161U 23004X   25252.90018236  .00000343  00000+0  93303-3 0  9992
2 55161  87.8769  76.9330 0001626  96.9039 263.2274 13.11416129129090
ONEWEB-0621             
1 55162U 23004Y   25252.92730216 -.00000494  00000+0 -14309-2 0  9991
2 55162  87.8786  76.8871 0001899  85.6881 274.4464 13.11417650129074
ONEWEB-0622             
1 55163U 23004Z   25252.55089399 -.00000330  00000+0 -96791-3 0  9995
2 55163  87.8772  76.9823 0002337 101.7563 258.3827 13.11416720129018
ONEWEB-0623             
1 55164U 23004AA  25252.88963113  .00000025  00000+0  30175-4 0  9991
2 55164  87.9038  61.6483 0002490  93.3808 266.7609 13.17648761130679
ONEWEB-0624             
1 55165U 23004AB  25252.89693344  .00000071  00000+0  15956-3 0  9999
2 55165  87.8887  46.3352 0001874  90.7946 269.3398 13.12913719131291
ONEWEB-0625             
1 55166U 23004AC  25252.87949887 -.00000068  00000+0 -20853-3 0  9994
2 55166  87.9034  61.6469 0001649  86.8856 273.2464 13.17647739130661
ONEWEB-0626             
1 55167U 23004AD  25252.86936582  .00000043  00000+0  77828-4 0  9998
2 55167  87.9036  61.6477 0001410 107.7650 252.3635 13.17647929130663
ONEWEB-0627             
1 55168U 23004AE  25252.85757654 -.00000024  00000+0 -94490-4 0  9994
2 55168  87.9035  61.6514 0002259  96.2801 263.8588 13.17649199130662
